[{"OBJECT_NAME":"OBJECT E","OBJECT_ID":"2024-153E","EPOCH":"2026-03-09T23:09:09.513216","MEAN_MOTION":15.24133271,"ECCENTRICITY":4.895e-5,"INCLINATION":97.6591,"RA_OF_ASC_NODE":203.8355,"ARG_OF_PERICENTER":171.5214,"MEAN_ANOMALY":188.6031,"EPHEMERIS_TYPE":0,"CLASSIFICATION_TYPE":"U","NORAD_CAT_ID":60749,"ELEMENT_SET_NO":999,"REV_AT_EPOCH":8470,"BSTAR":0.00081752478,"MEAN_MOTION_DOT":0.00019841,"MEAN_MOTION_DDOT":0},{"OBJECT_NAME":"LEO EXPRESS 2","OBJECT_ID":"2025-009BS","EPOCH":"2026-03-09T18:02:20.136480","MEAN_MOTION":15.18978124,"ECCENTRICITY":0.00254218,"INCLINATION":96.6294,"RA_OF_ASC_NODE":150.033,"ARG_OF_PERICENTER":119.8002,"MEAN_ANOMALY":240.5767,"EPHEMERIS_TYPE":0,"CLASSIFICATION_TYPE":"U","NORAD_CAT_ID":62673,"ELEMENT_SET_NO":999,"REV_AT_EPOCH":12143,"BSTAR":0.00029070502,"MEAN_MOTION_DOT":6.074e-5,"MEAN_MOTION_DDOT":0}]
